{"type": "FeatureCollection", "features": [ {"type": "Feature", "properties": {"norad_id": 43622, "name": "BEIDOU-3 M13 (C32)", "group": "beidou", "lat": 38.299089448916874, "lon": 100.0496958582371, "alt_km": 21529.235366216228, "timestamp": "2025-12-22T09:53:37.667163+00:00", "meta": {"OBJECT_NAME": "BEIDOU-3 M13 (C32)", "OBJECT_ID": "2018-072A", "EPOCH": "2025-12-21T06:24:05.172192", "MEAN_MOTION": 1.86231118, "ECCENTRICITY": 0.00062116, "INCLINATION": 56.4663, "RA_OF_ASC_NODE": 68.5379, "ARG_OF_PERICENTER": 298.3671, "MEAN_ANOMALY": 61.6165, "EPHEMERIS_TYPE": 0, "CLASSIFICATION_TYPE": "U", "NORAD_CAT_ID": 43622, "ELEMENT_SET_NO": 999, "REV_AT_EPOCH": 4934, "BSTAR": 0, "MEAN_MOTION_DOT": -3.6e-07, "MEAN_MOTION_DDOT": 0}, "tle": {"line1": "1 43622U 18072A   25355.26672653 -.00000036  00000+0  00000+0 0  9990", "line2": "2 43622  56.4663  68.5379 0006211 298.3671  61.6165  1.86231118 49349"}}, "geometry": {"type": "Point", "coordinates": [100.0496958582371, 38.299089448916874]}}, {"type": "Feature", "properties": {"norad_id": 43623, "name": "BEIDOU-3 M14 (C33)", "group": "beidou", "lat": 33.73945282809068, "lon": -137.7349481352265, "alt_km": 21533.79660005831, "timestamp": "2025-12-22T09:53:37.667174+00:00", "meta": {"OBJECT_NAME": "BEIDOU-3 M14 (C33)", "OBJECT_ID": "2018-072B", "EPOCH": "2025-12-22T04:56:47.689728", "MEAN_MOTION": 1.86231163, "ECCENTRICITY": 0.0003576, "INCLINATION": 56.4687, "RA_OF_ASC_NODE": 68.5008, "ARG_OF_PERICENTER": 327.1514, "MEAN_ANOMALY": 32.8768, "EPHEMERIS_TYPE": 0, "CLASSIFICATION_TYPE": "U", "NORAD_CAT_ID": 43623, "ELEMENT_SET_NO": 999, "REV_AT_EPOCH": 4935, "BSTAR": 0, "MEAN_MOTION_DOT": -3e-07, "MEAN_MOTION_DDOT": 0}, "tle": {"line1": "1 43623U 18072B   25356.20610752 -.00000030  00000+0  00000+0 0  9992", "line2": "2 43623  56.4687  68.5008 0003576 327.1514  32.8768  1.86231163 49353"}}, "geometry": {"type": "Point", "coordinates": [-137.7349481352265, 33.73945282809068]}}, {"type": "Feature", "properties": {"norad_id": 43647, "name": "BEIDOU-3 M16 (C35)", "group": "beidou", "lat": 25.8832922062378, "lon": -33.40555170007144, "alt_km": 21504.64424424612, "timestamp": "2025-12-22T09:53:37.667185+00:00", "meta": {"OBJECT_NAME": "BEIDOU-3 M16 (C35)", "OBJECT_ID": "2018-078A", "EPOCH": "2025-12-21T06:57:26.662752", "MEAN_MOTION": 1.86232383, "ECCENTRICITY": 0.00073912, "INCLINATION": 54.254, "RA_OF_ASC_NODE": 306.2225, "ARG_OF_PERICENTER": 20.1589, "MEAN_ANOMALY": 339.8673, "EPHEMERIS_TYPE": 0, "CLASSIFICATION_TYPE": "U", "NORAD_CAT_ID": 43647, "ELEMENT_SET_NO": 999, "REV_AT_EPOCH": 4884, "BSTAR": 0, "MEAN_MOTION_DOT": -6.2e-07, "MEAN_MOTION_DDOT": 0}, "tle": {"line1": "1 43647U 18078A   25355.28989193 -.00000062  00000+0  00000+0 0  9994", "line2": "2 43647  54.2540 306.2225 0007391  20.1589 339.8673  1.86232383 48840"}}, "geometry": {"type": "Point", "coordinates": [-33.40555170007144, 25.8832922062378]}}, {"type": "Feature", "properties": {"norad_id": 43648, "name": "BEIDOU-3 M15 (C34)", "group": "beidou", "lat": -41.15709913235143, "lon": -92.81407013076958, "alt_km": 21529.598571060065, "timestamp": "2025-12-22T09:53:37.667196+00:00", "meta": {"OBJECT_NAME": "BEIDOU-3 M15 (C34)", "OBJECT_ID": "2018-078B", "EPOCH": "2025-12-21T10:03:31.527360", "MEAN_MOTION": 1.86232375, "ECCENTRICITY": 0.0004048, "INCLINATION": 54.2499, "RA_OF_ASC_NODE": 306.2186, "ARG_OF_PERICENTER": 19.7002, "MEAN_ANOMALY": 340.3131, "EPHEMERIS_TYPE": 0, "CLASSIFICATION_TYPE": "U", "NORAD_CAT_ID": 43648, "ELEMENT_SET_NO": 999, "REV_AT_EPOCH": 4886, "BSTAR": 0, "MEAN_MOTION_DOT": -6.1e-07, "MEAN_MOTION_DDOT": 0}, "tle": {"line1": "1 43648U 18078B   25355.41911490 -.00000061  00000+0  00000+0 0  9994", "line2": "2 43648  54.2499 306.2186 0004048  19.7002 340.3131  1.86232375 48869"}}, "geometry": {"type": "Point", "coordinates": [-92.81407013076958, -41.15709913235143]}}, {"type": "Feature", "properties": {"norad_id": 43683, "name": "BEIDOU-3 G1 (C59)", "group": "beidou", "lat": -2.6071068340701244, "lon": 19.610117178630198, "alt_km": 35791.52996668513, "timestamp": "2025-12-22T09:53:37.667208+00:00", "meta": {"OBJECT_NAME": "BEIDOU-3 G1 (C59)", "OBJECT_ID": "2018-085A", "EPOCH": "2025-12-22T03:34:38.782272", "MEAN_MOTION": 1.00267839, "ECCENTRICITY": 0.0001532, "INCLINATION": 2.63, "RA_OF_ASC_NODE": 102.6901, "ARG_OF_PERICENTER": 45.1792, "MEAN_ANOMALY": 136.7491, "EPHEMERIS_TYPE": 0, "CLASSIFICATION_TYPE": "U", "NORAD_CAT_ID": 43683, "ELEMENT_SET_NO": 999, "REV_AT_EPOCH": 2628, "BSTAR": 0, "MEAN_MOTION_DOT": -2.58e-06, "MEAN_MOTION_DDOT": 0}, "tle": {"line1": "1 43683U 18085A   25356.14905998 -.00000258  00000+0  00000+0 0  9996", "line2": "2 43683   2.6300 102.6901 0001532  45.1792 136.7491  1.00267839 26280"}}, "geometry": {"type": "Point", "coordinates": [19.610117178630198, -2.6071068340701244]}}, {"type": "Feature", "properties": {"norad_id": 43706, "name": "BEIDOU-3 M17 (C36)", "group": "beidou", "lat": -15.618772474687539, "lon": 19.955572823959564, "alt_km": 21535.892670477304, "timestamp": "2025-12-22T09:53:37.667219+00:00", "meta": {"OBJECT_NAME": "BEIDOU-3 M17 (C36)", "OBJECT_ID": "2018-093A", "EPOCH": "2025-12-20T12:04:20.840736", "MEAN_MOTION": 1.86228485, "ECCENTRICITY": 0.00060883, "INCLINATION": 54.1751, "RA_OF_ASC_NODE": 188.3582, "ARG_OF_PERICENTER": 307.8758, "MEAN_ANOMALY": 51.559, "EPHEMERIS_TYPE": 0, "CLASSIFICATION_TYPE": "U", "NORAD_CAT_ID": 43706, "ELEMENT_SET_NO": 999, "REV_AT_EPOCH": 4820, "BSTAR": 0, "MEAN_MOTION_DOT": 9.7e-07, "MEAN_MOTION_DDOT": 0}, "tle": {"line1": "1 43706U 18093A   25354.50301899  .00000097  00000+0  00000+0 0  9999", "line2": "2 43706  54.1751 188.3582 0006088 307.8758  51.5590  1.86228485 48203"}}, "geometry": {"type": "Point", "coordinates": [19.955572823959564, -15.618772474687539]}}, {"type": "Feature", "properties": {"norad_id": 43707, "name": "BEIDOU-3 M18 (C37)", "group": "beidou", "lat": -48.62182404644953, "lon": 133.15307055287994, "alt_km": 21525.65585470982, "timestamp": "2025-12-22T09:53:37.667231+00:00", "meta": {"OBJECT_NAME": "BEIDOU-3 M18 (C37)", "OBJECT_ID": "2018-093B", "EPOCH": "2025-12-20T21:39:28.587744", "MEAN_MOTION": 1.86226757, "ECCENTRICITY": 0.00062168, "INCLINATION": 54.1741, "RA_OF_ASC_NODE": 188.3365, "ARG_OF_PERICENTER": 353.7926, "MEAN_ANOMALY": 6.2524, "EPHEMERIS_TYPE": 0, "CLASSIFICATION_TYPE": "U", "NORAD_CAT_ID": 43707, "ELEMENT_SET_NO": 999, "REV_AT_EPOCH": 4821, "BSTAR": 0, "MEAN_MOTION_DOT": 9.5e-07, "MEAN_MOTION_DDOT": 0}, "tle": {"line1": "1 43707U 18093B   25354.90241421  .00000095  00000+0  00000+0 0  9996", "line2": "2 43707  54.1741 188.3365 0006216 353.7926   6.2524  1.86226757 48217"}}, "geometry": {"type": "Point", "coordinates": [133.15307055287994, -48.62182404644953]}}, {"type": "Feature", "properties": {"norad_id": 44231, "name": "BEIDOU-2 G8 (C01)", "group": "beidou", "lat": -1.293968935639077, "lon": 24.183440472512434, "alt_km": 35763.50266632249, "timestamp": "2025-12-22T09:53:37.667242+00:00", "meta": {"OBJECT_NAME": "BEIDOU-2 G8 (C01)", "OBJECT_ID": "2019-027A", "EPOCH": "2025-12-19T12:14:23.449632", "MEAN_MOTION": 1.00276563, "ECCENTRICITY": 0.0008196, "INCLINATION": 1.6785, "RA_OF_ASC_NODE": 74.7229, "ARG_OF_PERICENTER": 258.5641, "MEAN_ANOMALY": 83.1013, "EPHEMERIS_TYPE": 0, "CLASSIFICATION_TYPE": "U", "NORAD_CAT_ID": 44231, "ELEMENT_SET_NO": 999, "REV_AT_EPOCH": 2427, "BSTAR": 0, "MEAN_MOTION_DOT": -2.24e-06, "MEAN_MOTION_DDOT": 0}, "tle": {"line1": "1 44231U 19027A   25353.50999363 -.00000224  00000+0  00000+0 0  9992", "line2": "2 44231   1.6785  74.7229 0008196 258.5641  83.1013  1.00276563 24270"}}, "geometry": {"type": "Point", "coordinates": [24.183440472512434, -1.293968935639077]}}, {"type": "Feature", "properties": {"norad_id": 44337, "name": "BEIDOU-3 IGSO-2 (C39)", "group": "beidou", "lat": -15.214727363991688, "lon": -8.696549178851983, "alt_km": 35631.37245657666, "timestamp": "2025-12-22T09:53:37.667253+00:00", "meta": {"OBJECT_NAME": "BEIDOU-3 IGSO-2 (C39)", "OBJECT_ID": "2019-035A", "EPOCH": "2025-12-21T20:57:21.557088", "MEAN_MOTION": 1.00268613, "ECCENTRICITY": 0.003767, "INCLINATION": 55.2286, "RA_OF_ASC_NODE": 160.4211, "ARG_OF_PERICENTER": 202.2744, "MEAN_ANOMALY": 161.7127, "EPHEMERIS_TYPE": 0, "CLASSIFICATION_TYPE": "U", "NORAD_CAT_ID": 44337, "ELEMENT_SET_NO": 999, "REV_AT_EPOCH": 2389, "BSTAR": 0, "MEAN_MOTION_DOT": -7.4e-07, "MEAN_MOTION_DDOT": 0}, "tle": {"line1": "1 44337U 19035A   25355.87316617 -.00000074  00000+0  00000+0 0  9998", "line2": "2 44337  55.2286 160.4211 0037670 202.2744 161.7127  1.00268613 23894"}}, "geometry": {"type": "Point", "coordinates": [-8.696549178851983, -15.214727363991688]}}, {"type": "Feature", "properties": {"norad_id": 44542, "name": "BEIDOU-3 M24 (C46)", "group": "beidou", "lat": -47.30125417243701, "lon": 59.667687989661005, "alt_km": 21554.35545833803, "timestamp": "2025-12-22T09:53:37.667265+00:00", "meta": {"OBJECT_NAME": "BEIDOU-3 M24 (C46)", "OBJECT_ID": "2019-061A", "EPOCH": "2025-12-20T23:21:37.865088", "MEAN_MOTION": 1.86229471, "ECCENTRICITY": 0.0009592, "INCLINATION": 54.4004, "RA_OF_ASC_NODE": 188.7381, "ARG_OF_PERICENTER": 25.7188, "MEAN_ANOMALY": 334.3821, "EPHEMERIS_TYPE": 0, "CLASSIFICATION_TYPE": "U", "NORAD_CAT_ID": 44542, "ELEMENT_SET_NO": 999, "REV_AT_EPOCH": 4247, "BSTAR": 0, "MEAN_MOTION_DOT": 9.6e-07, "MEAN_MOTION_DDOT": 0}, "tle": {"line1": "1 44542U 19061A   25354.97335492  .00000096  00000+0  00000+0 0  9990", "line2": "2 44542  54.4004 188.7381 0009592  25.7188 334.3821  1.86229471 42471"}}, "geometry": {"type": "Point", "coordinates": [59.667687989661005, -47.30125417243701]}}]}